{
    "links": {
        "self": "http://www.neowsapp.com/rest/v1/neo/3283897?api_key=iIulBulltgU6a56xZRHN4H3l9WmuAYTsLGpBGhQ2"
    },
    "id": "3283897",
    "neo_reference_id": "3283897",
    "name": "(2005 NX55)",
    "designation": "2005 NX55",
    "nasa_jpl_url": "http://ssd.jpl.nasa.gov/sbdb.cgi?sstr=3283897",
    "absolute_magnitude_h": 22.1,
    "estimated_diameter": {
        "kilometers": {
            "estimated_diameter_min": 0.1010543415,
            "estimated_diameter_max": 0.2259643771
        },
        "meters": {
            "estimated_diameter_min": 101.054341542,
            "estimated_diameter_max": 225.9643771094
        },
        "miles": {
            "estimated_diameter_min": 0.0627922373,
            "estimated_diameter_max": 0.140407711
        },
        "feet": {
            "estimated_diameter_min": 331.5431259047,
            "estimated_diameter_max": 741.3529669956
        }
    },
    "is_potentially_hazardous_asteroid": false,
    "close_approach_data": [
        {
            "close_approach_date": "2005-07-17",
            "close_approach_date_full": "2005-Jul-17 16:39",
            "epoch_date_close_approach": 1121618340000,
            "relative_velocity": {
                "kilometers_per_second": "19.7116880689",
                "kilometers_per_hour": "70962.077047914",
                "miles_per_hour": "44093.0750412441"
            },
            "miss_distance": {
                "astronomical": "0.1384955636",
                "lunar": "53.8747742404",
                "kilometers": "20718641.319009532",
                "miles": "12873966.7418622616"
            },
            "orbiting_body": "Earth"
        }
    ],
    "orbital_data": {
        "orbit_id": "7",
        "orbit_determination_date": "2017-04-06 09:10:46",
        "first_observation_date": "2005-07-11",
        "last_observation_date": "2005-07-12",
        "data_arc_in_days": 1,
        "observations_used": 14,
        "orbit_uncertainty": "9",
        "minimum_orbit_intersection": ".0258463",
        "jupiter_tisserand_invariant": "3.997",
        "epoch_osculation": "2453563.5",
        "eccentricity": ".6148534659656255",
        "semi_major_axis": "1.6182665611447",
        "inclination": "27.30168703405784",
        "ascending_node_longitude": "106.1744046344367",
        "orbital_period": "751.9232560397136",
        "perihelion_distance": ".6232697571686072",
        "perihelion_argument": "276.2924537121296",
        "aphelion_distance": "2.613263365120792",
        "perihelion_time": "2453624.655409881117",
        "mean_anomaly": "330.7204859267721",
        "mean_motion": ".4787722644676204",
        "equinox": "J2000",
        "orbit_class": {
            "orbit_class_type": "APO",
            "orbit_class_description": "Near-Earth asteroid orbits which cross the Earth’s orbit similar to that of 1862 Apollo",
            "orbit_class_range": "a (semi-major axis) > 1.0 AU; q (perihelion) < 1.017 AU"
        }
    },
    "is_sentry_object": false
}